[{"OBJECT_NAME":"HYPSO-2","OBJECT_ID":"2024-149BR","EPOCH":"2026-03-09T15:24:17.277696","MEAN_MOTION":14.98259029,"ECCENTRICITY":0.00013898,"INCLINATION":97.6894,"RA_OF_ASC_NODE":146.3679,"ARG_OF_PERICENTER":74.8032,"MEAN_ANOMALY":285.3344,"EPHEMERIS_TYPE":0,"CLASSIFICATION_TYPE":"U","NORAD_CAT_ID":60531,"ELEMENT_SET_NO":999,"REV_AT_EPOCH":8514,"BSTAR":0.00033979817,"MEAN_MOTION_DOT":3.981e-5,"MEAN_MOTION_DDOT":0},{"OBJECT_NAME":"STARLINK-34406","OBJECT_ID":"2025-142K","EPOCH":"2026-03-09T22:08:51.692928","MEAN_MOTION":14.98332656,"ECCENTRICITY":0.00028588,"INCLINATION":70.0016,"RA_OF_ASC_NODE":313.9528,"ARG_OF_PERICENTER":253.2136,"MEAN_ANOMALY":106.871,"EPHEMERIS_TYPE":0,"CLASSIFICATION_TYPE":"U","NORAD_CAT_ID":64705,"ELEMENT_SET_NO":999,"REV_AT_EPOCH":3963,"BSTAR":0.00047036682,"MEAN_MOTION_DOT":5.524e-5,"MEAN_MOTION_DDOT":0}]
